NORAD_CAT_ID,OBJECT_NAME,OBJECT_TYPE,EPOCH,MEAN_MOTION,ECCENTRICITY,INCLINATION,RA_OF_ASC_NODE,ARG_OF_PERICENTER,MEAN_ANOMALY,BSTAR,MEAN_MOTION_DOT,MEAN_MOTION_DDOT,TLE_LINE0,TLE_LINE1,TLE_LINE2,SEMIMAJOR_AXIS,PERIOD,APOGEE,PERIGEE,DECAYED
52986.0,STARLINK-4260,PAYLOAD,2022-07-12 16:00:00,15.87788818,0.0031363,53.2174,354.594,54.5186,168.3452,-0.0041549,-0.01188864,0.00040253,0 STARLINK-4260,1 52986U 22076A   22193.66667824 -.01188864  40253-3 -41549-2 0  9999,2 52986  53.2174 354.5940 0031363  54.5186 168.3452 15.87788818  1303,6686.621,90.692,329.457,287.514,0.0
52986.0,STARLINK-4260,PAYLOAD,2022-07-13 04:00:00,15.86649262,0.0027288,53.2175,352.0671,56.2723,145.2253,-0.0044396,-0.01187695,0.00039764,0 STARLINK-4260,1 52986U 22076A   22194.16667824 -.01187695  39764-3 -44396-2 0  9994,2 52986  53.2175 352.0671 0027288  56.2723 145.2253 15.86649262  1373,6689.821999999999,90.757,329.94199999999995,293.432,0.0
52986.0,STARLINK-4260,PAYLOAD,2022-07-13 14:00:01,15.85676069,0.0023217,53.2177,349.9656,54.8377,7.2937,-0.0044987,-0.01137859,0.0003646,0 STARLINK-4260,1 52986U 22076A   22194.58334491 -.01137859  36460-3 -44987-2 0  9994,2 52986  53.2177 349.9656 0023217  54.8377   7.2937 15.85676069  1303,6692.559,90.813,329.962,298.886,0.0
52986.0,STARLINK-4260,PAYLOAD,2022-07-13 22:00:00,15.84925549,0.002012,53.2173,348.2874,56.0109,109.5903,-0.0047677,-0.0103769,0.0,0 STARLINK-4260,1 52986U 22076A   22194.91667824 -.01037690  00000-0 -47677-2 0  9999,2 52986  53.2173 348.2874 0020120  56.0109 109.5903 15.84925549  1308,6694.670999999999,90.856,330.006,303.067,0.0
52986.0,STARLINK-4260,PAYLOAD,2022-07-14 08:00:01,15.83973349,0.0016012999999999,53.2172,346.1885,53.8548,329.8084,-0.0050082,-0.01033169,0.0,0 STARLINK-4260,1 52986U 22076A   22195.33334491 -.01033169  00000-0 -50082-2 0  9998,2 52986  53.2172 346.1885 0016013  53.8548 329.8084 15.83973349  1569,6697.354,90.911,329.944,308.495,0.0
52986.0,STARLINK-4260,PAYLOAD,2022-07-14 14:00:01,15.83409787,0.0014414,53.2175,344.9333,52.5636,317.2472,-0.005203,-0.01040936,0.0,0 STARLINK-4260,1 52986U 22076A   22195.58334491 -.01040936  00000-0 -52030-2 0  9990,2 52986  53.2175 344.9333 0014414  52.5636 317.2472 15.83409787  1307,6698.943,90.943,330.464,311.152,0.0
52986.0,STARLINK-4260,PAYLOAD,2022-07-14 22:00:00,15.82639188,0.0010952,53.2172,343.2607,51.1583,59.3912,-0.0052976,-0.01019136,0.0,0 STARLINK-4260,1 52986U 22076A   22195.91667824 -.01019136  00000-0 -52976-2 0  9993,2 52986  53.2172 343.2607 0010952  51.1583  59.3912 15.82639188  1659,6701.1169999999975,90.987,330.32199999999995,315.643,0.0
52986.0,STARLINK-4260,PAYLOAD,2022-07-15 14:00:01,15.81145922,0.00058,53.2176,339.918,36.5826,272.6924,-0.0059754,-0.01060304,0.0,0 STARLINK-4260,1 52986U 22076A   22196.58334491 -.01060304  00000-0 -59754-2 0  9992,2 52986  53.2176 339.9180 0005800  36.5826 272.6924 15.81145922  1766,6705.3359999999975,91.073,331.09,323.312,0.0
52986.0,STARLINK-4260,PAYLOAD,2022-07-15 22:00:00,15.80370007,0.0004044,53.2171,338.2506,23.0109,24.2672,-0.0060147,-0.01031562,0.0,0 STARLINK-4260,1 52986U 22076A   22196.91667824 -.01031562  00000-0 -60147-2 0  9990,2 52986  53.2171 338.2506 0004044  23.0109  24.2672 15.80370007  1303,6707.53,91.118,332.108,326.683,0.0
52986.0,STARLINK-4260,PAYLOAD,2022-07-16 14:00:01,15.78856214,0.0003532,53.2174,334.9195,5.1428,235.3914,-0.0065073,-0.0105738,0.0,0 STARLINK-4260,1 52986U 22076A   22197.58334491 -.01057380  00000-0 -65073-2 0  9994,2 52986  53.2174 334.9195 0003532   5.1428 235.3914 15.78856214  1309,6711.816999999999,91.205,336.05300000000005,331.3119999999999,0.0
52986.0,STARLINK-4260,PAYLOAD,2022-07-16 22:00:00,15.78098975,0.0002953,53.2172,333.2576,6.8554,328.9372,-0.0067513999999999,-0.01059355,0.0,0 STARLINK-4260,1 52986U 22076A   22197.91667824 -.01059355  00000-0 -67514-2 0  9996,2 52986  53.2172 333.2576 0002953   6.8554 328.9372 15.78098975  1978,6713.964,91.249,337.8119999999999,333.846,0.0
52986.0,STARLINK-4260,PAYLOAD,2022-07-17 14:00:01,15.76575774,0.000361,53.2176,329.9378,5.8534,157.72299999999996,-0.007181,-0.01053218,0.0,0 STARLINK-4260,1 52986U 22076A   22198.58334491 -.01053218  00000-0 -71810-2 0  9997,2 52986  53.2176 329.9378 0003610   5.8534 157.7230 15.76575774  2070,6718.288000000001,91.337,342.5780000000001,337.728,0.0
52986.0,STARLINK-4260,PAYLOAD,2022-07-17 22:00:00,15.75821175,0.0003481999999999,53.2171,328.2811,4.9386,251.1576,-0.0074835,-0.01060489,0.0,0 STARLINK-4260,1 52986U 22076A   22198.91667824 -.01060489  00000-0 -74835-2 0  9991,2 52986  53.2171 328.2811 0003482   4.9386 251.1576 15.75821175  1306,6720.432,91.381,344.63800000000015,339.957,0.0
52986.0,STARLINK-4260,PAYLOAD,2022-07-18 06:00:00,15.75057009,0.0001212,53.2172,326.6243,30.6299,317.0786,-0.0076888999999999,-0.010531,0.0,0 STARLINK-4260,1 52986U 22076A   22199.25001157 -.01053100  00000-0 -76889-2 0  9993,2 52986  53.2172 326.6243 0001212  30.6299 317.0786 15.75057009  2185,6722.606,91.425,345.286,343.656,0.0
52986.0,STARLINK-4260,PAYLOAD,2022-07-18 14:00:01,15.74264739,0.0001509,53.2173,324.973,29.5732,48.8373,-0.0073528,-0.00980197,0.0,0 STARLINK-4260,1 52986U 22076A   22199.58334491 -.00980197  00000-0 -73528-2 0  9990,2 52986  53.2173 324.9730 0001509  29.5732  48.8373 15.74264739  1309,6724.861,91.471,347.741,345.711,0.0
52986.0,STARLINK-4260,PAYLOAD,2022-07-18 22:00:00,15.73443104,0.0001598,53.2173,323.3217,28.8635,139.3347,-0.0024679,-0.00336983,0.0,0 STARLINK-4260,1 52986U 22076A   22199.91667824 -.00336983  00000-0 -24679-2 0  9997,2 52986  53.2173 323.3217 0001598  28.8635 139.3347 15.73443104  2283,6727.2019999999975,91.519,350.142,347.992,0.0
52986.0,STARLINK-4260,PAYLOAD,2022-07-19 06:00:00,15.73203135,0.0001087,53.2174,321.6699,80.4804,176.79,1.2362e-05,1.116e-05,0.0,0 STARLINK-4260,1 52986U 22076A   22200.25001157  .00001116  00000-0  12362-4 0  9991,2 52986  53.2174 321.6699 0001087  80.4804 176.7900 15.73203135  2349,6727.886,91.533,350.483,349.02,0.0
52986.0,STARLINK-4260,PAYLOAD,2022-07-19 14:00:01,15.7328289,0.0001557,53.2197,320.0283,50.9443,295.3249,-0.00049705,-0.00070048,0.0,0 STARLINK-4260,1 52986U 22076A   22200.58334491 -.00070048  00000-0 -49705-3 0  9999,2 52986  53.2197 320.0283 0001557  50.9443 295.3249 15.73282890  2393,6727.659000000002,91.528,350.571,348.476,0.0
52986.0,STARLINK-4260,PAYLOAD,2022-07-19 22:00:00,15.73205497,0.0001296,53.2171,318.3725,54.6948,20.4421,-1.1499e-05,-2.234e-05,0.0,0 STARLINK-4260,1 52986U 22076A   22200.91667824 -.00002234  00000-0 -11499-4 0  9997,2 52986  53.2171 318.3725 0001296  54.6948  20.4421 15.73205497  1304,6727.88,91.533,350.616,348.87300000000016,0.0
52986.0,STARLINK-4260,PAYLOAD,2022-07-20 06:00:00,15.73181522,0.0001336,53.2192,316.7274,51.9001,112.355,0.00014405,0.00019628,0.0,0 STARLINK-4260,1 52986U 22076A   22201.25001157  .00019628  00000-0  14405-3 0  9998,2 52986  53.2192 316.7274 0001336  51.9001 112.3550 15.73181522  2490,6727.948,91.534,350.712,348.914,0.0
52986.0,STARLINK-4260,PAYLOAD,2022-07-20 14:00:01,15.73208493,0.0001498,53.2193,315.08,43.8089,209.3557,0.00010473,0.00014108,0.0,0 STARLINK-4260,1 52986U 22076A   22201.58334491  .00014108  00000-0  10473-3 0  9993,2 52986  53.2193 315.0800 0001498  43.8089 209.3557 15.73208493  1303,6727.871,91.533,350.744,348.728,0.0
52986.0,STARLINK-4260,PAYLOAD,2022-07-20 22:00:01,15.73269572,0.0001388,53.2183,313.4281,28.4193,313.7399,-0.0014207,-0.00196016,0.0,0 STARLINK-4260,1 52986U 22076A   22201.91668981 -.00196016  00000-0 -14207-2 0  9993,2 52986  53.2183 313.4281 0001388  28.4193 313.7399 15.73269572  1309,6727.696999999999,91.529,350.496,348.62800000000016,0.0
52986.0,STARLINK-4260,PAYLOAD,2022-07-21 06:00:00,15.73193861,0.0001345,53.2197,311.7792,42.3297,28.6902,-0.00015349,-0.00022099,0.0,0 STARLINK-4260,1 52986U 22076A   22202.25001157 -.00022099  00000-0 -15349-3 0  9995,2 52986  53.2197 311.7792 0001345  42.3297  28.6902 15.73193861  2653,6727.913000000001,91.534,350.68300000000005,348.87300000000016,0.0
52986.0,STARLINK-4260,PAYLOAD,2022-07-21 14:00:01,15.73196352,0.0001618,53.2194,310.1317,38.3328,121.6625,-0.0003457,-0.0004885,0.0,0 STARLINK-4260,1 52986U 22076A   22202.58335648 -.00048850  00000-0 -34570-3 0  9996,2 52986  53.2194 310.1317 0001618  38.3328 121.6625 15.73196352  1304,6727.906,91.533,350.8590000000001,348.682,0.0
52986.0,STARLINK-4260,PAYLOAD,2022-07-21 22:00:00,15.73171059,0.0001506,53.2188,308.4819,31.5593,217.2714,-6.439e-05,-9.635e-05,0.0,0 STARLINK-4260,1 52986U 22076A   22202.91667824 -.00009635  00000-0 -64390-4 0  9999,2 52986  53.2188 308.4819 0001506  31.5593 217.2714 15.73171059  1307,6727.978,91.535,350.856,348.829,0.0
52986.0,STARLINK-4260,PAYLOAD,2022-07-22 06:00:00,15.73160673,0.0001341,53.2191,306.8311,37.5667,300.1552,0.00058128,0.00081617,0.0,0 STARLINK-4260,1 52986U 22076A   22203.25001157  .00081617  00000-0  58128-3 0  9997,2 52986  53.2191 306.8311 0001341  37.5667 300.1552 15.73160673  2814,6728.007,91.535,350.775,348.97,0.0
52986.0,STARLINK-4260,PAYLOAD,2022-07-22 22:00:00,15.73297463,0.0001644,53.2195,303.5336,31.5471,124.0712,-0.00094999,-0.00132424,0.0,0 STARLINK-4260,1 52986U 22076A   22203.91667824 -.00132424  00000-0 -94999-3 0  9990,2 52986  53.2195 303.5336 0001644  31.5471 124.0712 15.73297463  2912,6727.6169999999975,91.528,350.588,348.376,0.0
52986.0,STARLINK-4260,PAYLOAD,2022-07-23 14:00:01,15.73199661,0.000166,53.2191,300.2329,25.9364,307.6841,-0.00041612,-0.00058616,0.0,0 STARLINK-4260,1 52986U 22076A   22204.58335648 -.00058616  00000-0 -41612-3 0  9994,2 52986  53.2191 300.2329 0001660  25.9364 307.6841 15.73199661  1305,6727.896,91.533,350.87800000000016,348.644,0.0
52986.0,STARLINK-4260,PAYLOAD,2022-07-23 22:00:00,15.73182177,0.0001626999999999,53.219,298.5853,21.3927,41.0117,0.00010894,0.00014684,0.0,0 STARLINK-4260,1 52986U 22076A   22204.91667824  .00014684  00000-0  10894-3 0  9998,2 52986  53.2190 298.5853 0001627  21.3927  41.0117 15.73182177  1302,6727.946,91.534,350.906,348.716,0.0
